NORAD_CAT_ID,OBJECT_NAME,OBJECT_TYPE,EPOCH,MEAN_MOTION,ECCENTRICITY,INCLINATION,RA_OF_ASC_NODE,ARG_OF_PERICENTER,MEAN_ANOMALY,BSTAR,MEAN_MOTION_DOT,MEAN_MOTION_DDOT,TLE_LINE0,TLE_LINE1,TLE_LINE2,SEMIMAJOR_AXIS,PERIOD,APOGEE,PERIGEE,DECAYED
52129.0,STARLINK-3661,PAYLOAD,2022-09-08 22:00:00,15.08849075,0.0001453,53.216,45.2564,61.6637,346.6141,0.00026767,3.976e-05,0.0,0 STARLINK-3661,1 52129U 22029AT  22251.91667824  .00003976  00000-0  26767-3 0  9995,2 52129  53.2160  45.2564 0001453  61.6637 346.6141 15.08849075 28031,6917.853,95.437,540.7230000000002,538.712,0.0
52129.0,STARLINK-3661,PAYLOAD,2022-09-09 14:00:01,15.088444400000002,0.0001281999999999,53.2166,42.2625,65.964,5.5134,-0.0014424,-0.00023173,0.0,0 STARLINK-3661,1 52129U 22029AT  22252.58334491 -.00023173  00000-0 -14424-2 0  9999,2 52129  53.2166  42.2625 0001282  65.9640   5.5134 15.08844440  1308,6917.8669999999975,95.437,540.619,538.845,0.0
52129.0,STARLINK-3661,PAYLOAD,2022-09-09 22:00:00,15.08826523,0.0001343,53.2164,40.7668,57.24,25.8284,0.0017817,0.00028171,0.0,0 STARLINK-3661,1 52129U 22029AT  22252.91667824  .00028171  00000-0  17817-2 0  9995,2 52129  53.2164  40.7668 0001343  57.2400  25.8284 15.08826523  1305,6917.922,95.438,540.716,538.8580000000002,0.0
52129.0,STARLINK-3661,PAYLOAD,2022-09-10 04:00:00,15.08848896,0.0001277,53.2168,39.6431,66.1702,295.5991,-0.0022437,-0.00035827,0.0,0 STARLINK-3661,1 52129U 22029AT  22253.16667824 -.00035827  00000-0 -22437-2 0  9995,2 52129  53.2168  39.6431 0001277  66.1702 295.5991 15.08848896 28222,6917.853,95.437,540.602,538.835,0.0
52129.0,STARLINK-3661,PAYLOAD,2022-09-10 14:00:01,15.08844057,0.0001376999999999,53.217,37.7733,66.9924,39.259,-0.0014116,-0.00022686,0.0,0 STARLINK-3661,1 52129U 22029AT  22253.58334491 -.00022686  00000-0 -14116-2 0  9996,2 52129  53.2170  37.7733 0001377  66.9924  39.2590 15.08844057  1307,6917.868,95.437,540.686,538.78,0.0
52129.0,STARLINK-3661,PAYLOAD,2022-09-10 22:00:00,15.08842031,0.0001453999999999,53.2167,36.2779,59.738,58.1008,-0.00096025,-0.00015539,0.0,0 STARLINK-3661,1 52129U 22029AT  22253.91667824 -.00015539  00000-0 -96025-3 0  9991,2 52129  53.2167  36.2779 0001454  59.7380  58.1008 15.08842031 28335,6917.874,95.437,540.745,538.7330000000002,0.0
52129.0,STARLINK-3661,PAYLOAD,2022-09-11 14:00:01,15.08847008,0.0001469,53.217,33.2844,67.9085,73.1125,-0.0010260999999999,-0.00016584,0.0,0 STARLINK-3661,1 52129U 22029AT  22254.58334491 -.00016584  00000-0 -10261-2 0  9994,2 52129  53.2170  33.2844 0001469  67.9085  73.1125 15.08847008  1302,6917.859,95.437,540.74,538.7080000000002,0.0
52129.0,STARLINK-3661,PAYLOAD,2022-09-11 22:00:00,15.08852464,0.0001541999999999,53.2166,31.7885,62.1731,90.441,-0.0011145,-0.00017987,0.0,0 STARLINK-3661,1 52129U 22029AT  22254.91667824 -.00017987  00000-0 -11145-2 0  9990,2 52129  53.2166  31.7885 0001542  62.1731  90.4410 15.08852464 28481,6917.842,95.437,540.774,538.641,0.0
52129.0,STARLINK-3661,PAYLOAD,2022-09-12 14:00:01,15.08848529,0.0001574,53.2168,28.7956,68.5298,107.2688,-0.00069928,-0.00011402,0.0,0 STARLINK-3661,1 52129U 22029AT  22255.58334491 -.00011402  00000-0 -69928-3 0  9994,2 52129  53.2168  28.7956 0001574  68.5298 107.2688 15.08848529  1304,6917.854,95.437,540.808,538.63,0.0
52129.0,STARLINK-3661,PAYLOAD,2022-09-12 22:00:00,15.08863986,0.000156,53.2165,27.2996,62.6589,124.7373,-0.0018022,-0.00028874,0.0,0 STARLINK-3661,1 52129U 22029AT  22255.91667824 -.00028874  00000-0 -18022-2 0  9999,2 52129  53.2165  27.2996 0001560  62.6589 124.7373 15.08863986 28636,6917.807,95.436,540.751,538.5930000000002,0.0
52129.0,STARLINK-3661,PAYLOAD,2022-09-13 14:00:01,15.08854566,0.0001453999999999,53.2168,24.3073,63.3019,147.3115,-0.002374,-0.00037887,0.0,0 STARLINK-3661,1 52129U 22029AT  22256.58334491 -.00037887  00000-0 -23740-2 0  9991,2 52129  53.2168  24.3073 0001454  63.3019 147.3115 15.08854566  1305,6917.8359999999975,95.437,540.707,538.695,0.0
52129.0,STARLINK-3661,PAYLOAD,2022-09-13 16:00:00,15.08831604,0.0001508,53.2169,23.9341,60.7542,242.7652,0.00027392,4.073e-05,0.0,0 STARLINK-3661,1 52129U 22029AT  22256.66667824  .00004073  00000-0  27392-3 0  9996,2 52129  53.2169  23.9341 0001508  60.7542 242.7652 15.08831604 28742,6917.906,95.438,540.814,538.7280000000002,0.0
52129.0,STARLINK-3661,PAYLOAD,2022-09-13 22:00:00,15.08849113,0.000147,53.2164,22.8109,58.5562,163.6366,-0.0029358,-0.0004671999999999,0.0,0 STARLINK-3661,1 52129U 22029AT  22256.91667824 -.00046720  00000-0 -29358-2 0  9994,2 52129  53.2164  22.8109 0001470  58.5562 163.6366 15.08849113  1302,6917.853,95.437,540.734,538.701,0.0
52129.0,STARLINK-3661,PAYLOAD,2022-09-14 14:00:01,15.0883525,0.0001717,53.2173,19.8219,69.4632,175.8828,0.00016134,2.28e-05,0.0,0 STARLINK-3661,1 52129U 22029AT  22257.58334491  .00002280  00000-0  16134-3 0  9999,2 52129  53.2173  19.8219 0001717  69.4632 175.8828 15.08835250 28880,6917.895,95.438,540.948,538.572,0.0
52129.0,STARLINK-3661,PAYLOAD,2022-09-14 22:00:00,15.08848184,0.0001579,53.2166,18.3216,58.2968,198.6348,-0.00014825,-2.647e-05,0.0,0 STARLINK-3661,1 52129U 22029AT  22257.91667824 -.00002647  00000-0 -14825-3 0  9999,2 52129  53.2166  18.3216 0001579  58.2968 198.6348 15.08848184  1305,6917.855,95.437,540.813,538.628,0.0
52129.0,STARLINK-3661,PAYLOAD,2022-09-15 14:00:01,15.08867411,0.000155,53.2168,15.3289,58.1823,221.9758,-0.00223,-0.0003563,0.0,0 STARLINK-3661,1 52129U 22029AT  22258.58334491 -.00035630  00000-0 -22300-2 0  9998,2 52129  53.2168  15.3289 0001550  58.1823 221.9758 15.08867411  1301,6917.797,95.436,540.734,538.589,0.0
52129.0,STARLINK-3661,PAYLOAD,2022-09-15 17:31:57,15.08856061,0.0001512,53.2183,14.6671,63.7916,296.3232,0.00012994,1.781e-05,0.0,0 STARLINK-3661,1 52129U 22029AT  22258.73052415  .00001781  00000-0  12994-3 0  9995,2 52129  53.2183  14.6671 0001512  63.7916 296.3232 15.08856061 29063,6917.831,95.437,540.742,538.65,0.0
52129.0,STARLINK-3661,PAYLOAD,2022-09-16 11:01:12,15.08837277,0.0001205,53.2183,11.3937,68.1598,291.9522,0.00012233,1.659e-05,0.0,0 STARLINK-3661,1 52129U 22029AT  22259.45917437  .00001659  00000-0  12233-3 0  9999,2 52129  53.2183  11.3937 0001205  68.1598 291.9522 15.08837277 29179,6917.889,95.438,540.587,538.92,0.0
52129.0,STARLINK-3661,PAYLOAD,2022-09-16 17:22:45,15.08838656,0.000122,53.2183,10.2045,65.4003,294.7116,7.5714e-05,9.17e-06,0.0,0 STARLINK-3661,1 52129U 22029AT  22259.72413479  .00000917  00000-0  75714-4 0  9996,2 52129  53.2183  10.2045 0001220  65.4003 294.7116 15.08838656 29212,6917.884,95.438,540.5930000000002,538.906,0.0
52129.0,STARLINK-3661,PAYLOAD,2022-09-17 10:52:01,15.08827249,0.0001636,53.2166,6.9353,61.4399,298.6758,-0.00016687,-2.942e-05,0.0,0 STARLINK-3661,1 52129U 22029AT  22260.45279477 -.00002942  00000-0 -16687-3 0  9991,2 52129  53.2166   6.9353 0001636  61.4399 298.6758 15.08827249 29325,6917.919,95.438,540.9159999999998,538.653,0.0
52129.0,STARLINK-3661,PAYLOAD,2022-09-17 12:27:24,15.08827818,0.0001599,53.217,6.638,61.6416,298.4737,-0.00016705,-2.945e-05,0.0,0 STARLINK-3661,1 52129U 22029AT  22260.51903481 -.00002945  00000-0 -16705-3 0  9991,2 52129  53.2170   6.6380 0001599  61.6416 298.4737 15.08827818 29335,6917.918000000002,95.438,540.889,538.6759999999998,0.0
52129.0,STARLINK-3661,PAYLOAD,2022-09-17 17:13:33,15.08831435,0.0001551,53.2171,5.7457,61.9602,298.1547,-0.00012821,-2.327e-05,0.0,0 STARLINK-3661,1 52129U 22029AT  22260.71775236 -.00002327  00000-0 -12821-3 0  9997,2 52129  53.2171   5.7457 0001551  61.9602 298.1547 15.08831435 29368,6917.906999999997,95.438,540.845,538.6990000000002,0.0
52129.0,STARLINK-3661,PAYLOAD,2022-09-17 23:35:05,15.08839579,0.0001385,53.217,4.5545,49.4548,310.6565,3.6713e-06,-2.29e-06,0.0,0 STARLINK-3661,1 52129U 22029AT  22260.98270345 -.00000229  00000-0  36713-5 0  9993,2 52129  53.2170   4.5545 0001385  49.4548 310.6565 15.08839579 29409,6917.882,95.438,540.705,538.789,0.0
52129.0,STARLINK-3661,PAYLOAD,2022-09-18 12:18:10,15.08838475,0.0001541999999999,53.2171,2.1777,43.0438,317.0675,6.987100000000001e-05,8.24e-06,0.0,0 STARLINK-3661,1 52129U 22029AT  22261.51262343  .00000824  00000-0  69871-4 0  9992,2 52129  53.2171   2.1777 0001542  43.0438 317.0675 15.08838475 29489,6917.885,95.438,540.817,538.683,0.0
52129.0,STARLINK-3661,PAYLOAD,2022-09-18 15:28:56,15.08838802,0.0001567,53.2176,1.5827,60.3509,299.764,8.1577e-05,1.01e-05,0.0,0 STARLINK-3661,1 52129U 22029AT  22261.64510288  .00001010  00000-0  81577-4 0  9995,2 52129  53.2176   1.5827 0001567  60.3509 299.7640 15.08838802 29506,6917.884,95.438,540.8330000000002,538.665,0.0
52129.0,STARLINK-3661,PAYLOAD,2022-09-19 08:58:11,15.08830428,0.0001516,53.2182,358.3125,59.8948,300.2194,0.0001353,1.865e-05,0.0,0 STARLINK-3661,1 52129U 22029AT  22262.37374950  .00001865  00000-0  13530-3 0  9991,2 52129  53.2182 358.3125 0001516  59.8948 300.2194 15.08830428 29611,6917.91,95.438,540.823,538.726,0.0
52129.0,STARLINK-3661,PAYLOAD,2022-09-19 13:44:21,15.08833494,0.000155,53.2177,357.4198,58.7893,301.3251,0.000158,2.227e-05,0.0,0 STARLINK-3661,1 52129U 22029AT  22262.57246778  .00002227  00000-0  15800-3 0  9994,2 52129  53.2177 357.4198 0001550  58.7893 301.3251 15.08833494 29645,6917.9,95.438,540.8380000000002,538.693,0.0
52129.0,STARLINK-3661,PAYLOAD,2022-09-19 15:19:44,15.08834225,0.0001545,53.2178,357.1226,56.1015,304.0124,0.00015911,2.245e-05,0.0,0 STARLINK-3661,1 52129U 22029AT  22262.63870747  .00002245  00000-0  15911-3 0  9993,2 52129  53.2178 357.1226 0001545  56.1015 304.0124 15.08834225 29650,6917.898,95.438,540.832,538.694,0.0
52129.0,STARLINK-3661,PAYLOAD,2022-09-20 18:21:17,15.08843856,0.000171,53.218,352.0682,60.2511,299.8651,2.9104e-05,1.75e-06,0.0,0 STARLINK-3661,1 52129U 22029AT  22263.76478430  .00000175  00000-0  29104-4 0  9991,2 52129  53.2180 352.0682 0001710  60.2511 299.8651 15.08843856 29829,6917.869000000002,95.437,540.9169999999998,538.5509999999998,0.0
